#aV2019  6  7  0  0  0.00000000     288 DD+AD WGS84 FIT  NGA
## 2056 432000.00000000   300.00000000 58641 0.0000000000000
+   31     1  2  3  5  6  7  8  9 10 11 12 13 14 15 16 17 18
+         19 20 21 22 23 24 25 26 27 28 29 30 31 32  0  0  0
+          0  0  0  0  0  0  0  0  0  0  0  0  0  0  0  0  0
+          0  0  0  0  0  0  0  0  0  0  0  0  0  0  0  0  0
+          0  0  0  0  0  0  0  0  0  0  0  0  0  0  0  0  0
++         2  2  2  2  2  2  2  2  2  2  2  2  2  2  2  2  2
++         2  2  2  2  2  2  2  2  2  2  2  2  2  2  0  0  0
++         0  0  0  0  0  0  0  0  0  0  0  0  0  0  0  0  0
++         0  0  0  0  0  0  0  0  0  0  0  0  0  0  0  0  0
++         0  0  0  0  0  0  0  0  0  0  0  0  0  0  0  0  0
%c cc cc ccc ccc cccc cccc cccc cccc ccccc ccccc ccccc ccccc
%c cc cc ccc ccc cccc cccc cccc cccc ccccc ccccc ccccc ccccc
%f  0.0000000  0.000000000  0.00000000000  0.000000000000000
%f  0.0000000  0.000000000  0.00000000000  0.000000000000000
%i    0    0    0    0      0      0      0      0         0
%i    0    0    0    0      0      0      0      0         0
/*      NGA, ST. LOUIS,MO.                                  
/*   EPHEMERIS COMPUTED FROM 2 DAYS OF DATA                 
/*   EPOCHA v5 SMOOTHER                                     
/*   G1762 IERS2010 SATAF SATAPC                            
*  2019  6  7  2 30  0.00000000
P  1 -10691.378559  20561.935605 -12858.368880    -34.777232                    
V  1 -13608.269000   8892.993643  26227.522812     -0.094947                    
P  2  21224.372046 -13907.115974  -6970.046501   -231.377497                    
V  2  -4767.870842   8989.756748 -30022.810020     -0.090087                    
P  3  -2319.185351  15190.736715 -21711.439369    186.342496                    
V  3 -26008.943599  -8798.818302  -3297.262902     -0.011212                    
P  5  21432.961615  -4481.628837  15055.740424      0.648833                    
V  5  17710.119974   7917.776151 -22467.058942     -0.001717                    
P  6  19696.164370  -1186.745597 -17752.386519    184.940049                    
V  6 -16148.450689  15838.864209 -18894.509659     -0.104922                    
P  7   3234.104407  16436.322158  20766.588298    -39.414981                    
V  7 -20554.933310  15810.767416  -9907.029509     -0.076171                    
P  8  -6917.093095  20118.330066  15801.262794   -146.466183                    
V  8  -5870.274204 -19282.069047  22223.132408     -0.014866                    
P  9   8399.438617  24772.434682   4536.937888    396.664320                    
V  9  -1806.115273   6311.681768 -30865.588084     -0.075442                    
P 10 -23703.765298 -11418.900216   4411.795800     23.889426                    
V 10   6013.742832   -598.621875  31017.698063     -0.116066                    
P 11  -7958.297798  25289.730512  -3671.807805   -590.198826                    
V 11  -5354.624116   2064.569470  29960.010563      0.084638                    
P 12   4910.046120 -14023.775754 -22235.041318    235.495967                    
V 12  25436.440429  10814.005093  -1050.996736     -0.035117                    
P 13  12898.005186 -11889.734643  19819.276368    -60.238022                    
V 13   2799.220249  25270.710599  13312.399171      0.017452                    
P 14 -15251.388411  -4925.040975 -20887.612082    -77.199453                    
V 14  -2332.827507 -27150.315589   7801.729166      0.016639                    
P 15   5068.274562 -21331.265470  14451.140880   -308.572234                    
V 15   8356.311426  17413.031051  22756.252947      0.022585                    
P 16 -21314.852059   2001.278908  15806.765060    -46.059769                    
V 16 -17925.180877  -9402.368945 -22290.363619     -0.030524                    
P 17  13676.546038  14076.766847 -17532.769262     67.463946                    
V 17   1789.945042  22955.121260  19296.993500      0.064099                    
P 18 -16507.732767  20295.661681  -4642.618027     59.827945                    
V 18  -5915.983372   1491.867608  30973.592559      0.031558                    
P 19  14904.518681   6068.599176 -21419.936378   -309.706578                    
V 19   1770.160827  26392.821906   8903.687891      0.046703                    
P 20 -18375.746304 -13992.069775  13146.082600    525.223595                    
V 20  17103.032724    750.932667  24360.423917      0.002213                    
P 21  -8766.668139 -13443.001789  21976.816392   -178.035852                    
V 21  18859.777641 -18002.755504  -3465.352943      0.072612                    
P 22 -10441.149586  13040.923385 -20403.105458   -713.124826                    
V 22 -25399.502273  -7901.001303   7940.207574     -0.058846                    
P 23    -19.255550  25244.225369  -7219.127550   -182.898831                    
V 23  -5523.700789  -8790.190705 -29753.445753      0.016733                    
P 24  12329.731605 -21407.125125  -9457.292038    -67.114274                    
V 24  10952.184856  -5820.026009  28239.203642     -0.004517                    
P 25  -9373.727057 -16810.470079 -18625.195363   -763.470392                    
V 25  22175.131670   6553.348951 -17027.615625     -0.033974                    
P 26 -25615.178607  -3230.267471   6596.356003    220.644397                    
V 26  -7118.937409  -5238.625420 -29937.353693      0.094835                    
P 27 -12958.658800   8656.889494  21349.901139   -151.260393                    
V 27  -5862.745844 -26744.755049   7539.925737     -0.099230                    
P 28  22059.210349  13905.322371   5360.487116    767.606463                    
V 28  -6361.745566   -587.507334  31327.899006     -0.003011                    
P 29  -3752.890981 -26279.415752    721.683306    182.761941                    
V 29   1904.205988  -1201.625360 -32280.336018     -0.094647                    
P 30  13100.841215   9313.521194  21190.172827   -119.054041                    
V 30 -20782.969819  17086.616929   5152.701627     -0.072509                    
P 31 -20928.964526   2200.229125 -16466.215952     32.853197                    
V 31  15064.695007 -14334.157280 -20629.664159     -0.026287                    
P 32 -15387.886044 -11827.795421 -18121.545346    -54.407385                    
V 32  -2961.684162 -22970.339556  17330.208061      0.162683                    
EOF
